[{"OBJECT_NAME":"STARLINK-11563 [DTC]","OBJECT_ID":"2025-035B","EPOCH":"2026-03-09T04:31:52.022784","MEAN_MOTION":15.70833072,"ECCENTRICITY":0.0001022,"INCLINATION":43.0007,"RA_OF_ASC_NODE":18.2246,"ARG_OF_PERICENTER":296.9168,"MEAN_ANOMALY":63.1595,"EPHEMERIS_TYPE":0,"CLASSIFICATION_TYPE":"U","NORAD_CAT_ID":63053,"ELEMENT_SET_NO":999,"REV_AT_EPOCH":6103,"BSTAR":0.0018323693,"MEAN_MOTION_DOT":0.00241561,"MEAN_MOTION_DDOT":0},{"OBJECT_NAME":"OV2-3","OBJECT_ID":"1965-108V","EPOCH":"2026-03-09T11:08:43.067040","MEAN_MOTION":5.28499551,"ECCENTRICITY":0.52370931,"INCLINATION":26.5539,"RA_OF_ASC_NODE":175.6051,"ARG_OF_PERICENTER":354.9807,"MEAN_ANOMALY":1.3311,"EPHEMERIS_TYPE":0,"CLASSIFICATION_TYPE":"U","NORAD_CAT_ID":13912,"ELEMENT_SET_NO":999,"REV_AT_EPOCH":56541,"BSTAR":0.0013835678,"MEAN_MOTION_DOT":0.00018462,"MEAN_MOTION_DDOT":0}]
